PANDORA
1 67395U 80229J   26056.99570602  .00000000  00000-0  37770-3 0    08
2 67395  97.8010  57.4090 0006539 124.6182 154.7090 14.87813406    07
